{
    "links": {
        "self": "http://www.neowsapp.com/rest/v1/neo/3313555?api_key=iIulBulltgU6a56xZRHN4H3l9WmuAYTsLGpBGhQ2"
    },
    "id": "3313555",
    "neo_reference_id": "3313555",
    "name": "(2006 BO6)",
    "designation": "2006 BO6",
    "nasa_jpl_url": "http://ssd.jpl.nasa.gov/sbdb.cgi?sstr=3313555",
    "absolute_magnitude_h": 22.5,
    "estimated_diameter": {
        "kilometers": {
            "estimated_diameter_min": 0.0840533402,
            "estimated_diameter_max": 0.1879489824
        },
        "meters": {
            "estimated_diameter_min": 84.0533402073,
            "estimated_diameter_max": 187.9489824394
        },
        "miles": {
            "estimated_diameter_min": 0.0522283081,
            "estimated_diameter_max": 0.1167860472
        },
        "feet": {
            "estimated_diameter_min": 275.7655606856,
            "estimated_diameter_max": 616.6305395464
        }
    },
    "is_potentially_hazardous_asteroid": false,
    "close_approach_data": [
        {
            "close_approach_date": "1960-05-25",
            "close_approach_date_full": "1960-May-25 14:24",
            "epoch_date_close_approach": -303039360000,
            "relative_velocity": {
                "kilometers_per_second": "7.3058813517",
                "kilometers_per_hour": "26301.1728660859",
                "miles_per_hour": "16342.5259955965"
            },
            "miss_distance": {
                "astronomical": "1.1982355019",
                "lunar": "466.1136102391",
                "kilometers": "179253478.842620953",
                "miles": "111382946.8569290314"
            },
            "orbiting_body": "Juptr"
        },
        {
            "close_approach_date": "1984-02-24",
            "close_approach_date_full": "1984-Feb-24 00:47",
            "epoch_date_close_approach": 446431620000,
            "relative_velocity": {
                "kilometers_per_second": "6.0901784243",
                "kilometers_per_hour": "21924.6423273506",
                "miles_per_hour": "13623.1201172363"
            },
            "miss_distance": {
                "astronomical": "0.9076258146",
                "lunar": "353.0664418794",
                "kilometers": "135778888.621174902",
                "miles": "84369089.1425495676"
            },
            "orbiting_body": "Juptr"
        },
        {
            "close_approach_date": "2006-01-22",
            "close_approach_date_full": "2006-Jan-22 18:03",
            "epoch_date_close_approach": 1137952980000,
            "relative_velocity": {
                "kilometers_per_second": "13.3627992939",
                "kilometers_per_hour": "48106.0774579396",
                "miles_per_hour": "29891.2457404625"
            },
            "miss_distance": {
                "astronomical": "0.1056791645",
                "lunar": "41.1091949905",
                "kilometers": "15809377.912579615",
                "miles": "9823491.913504087"
            },
            "orbiting_body": "Earth"
        },
        {
            "close_approach_date": "2007-11-17",
            "close_approach_date_full": "2007-Nov-17 09:34",
            "epoch_date_close_approach": 1195292040000,
            "relative_velocity": {
                "kilometers_per_second": "7.5883730491",
                "kilometers_per_hour": "27318.1429768945",
                "miles_per_hour": "16974.4316736153"
            },
            "miss_distance": {
                "astronomical": "1.3041684225",
                "lunar": "507.3215163525",
                "kilometers": "195100818.127260075",
                "miles": "121230026.873236035"
            },
            "orbiting_body": "Juptr"
        },
        {
            "close_approach_date": "2171-12-26",
            "close_approach_date_full": "2171-Dec-26 06:03",
            "epoch_date_close_approach": 6374008980000,
            "relative_velocity": {
                "kilometers_per_second": "11.3960034206",
                "kilometers_per_hour": "41025.6123142604",
                "miles_per_hour": "25491.7200516025"
            },
            "miss_distance": {
                "astronomical": "0.0792894112",
                "lunar": "30.8435809568",
                "kilometers": "11861527.029074144",
                "miles": "7370411.1253614272"
            },
            "orbiting_body": "Earth"
        }
    ],
    "orbital_data": {
        "orbit_id": "10",
        "orbit_determination_date": "2017-04-06 09:09:22",
        "first_observation_date": "2006-01-22",
        "last_observation_date": "2006-02-20",
        "data_arc_in_days": 29,
        "observations_used": 50,
        "orbit_uncertainty": "7",
        "minimum_orbit_intersection": ".0571689",
        "jupiter_tisserand_invariant": "2.930",
        "epoch_osculation": "2459000.5",
        "eccentricity": ".6465690573242324",
        "semi_major_axis": "2.870741568372731",
        "inclination": "9.460185627986345",
        "ascending_node_longitude": "294.7348881092996",
        "orbital_period": "1776.599656382959",
        "perihelion_distance": "1.014608898688486",
        "perihelion_argument": "152.7473070605372",
        "aphelion_distance": "4.726874238056976",
        "perihelion_time": "2459070.307702959101",
        "mean_anomaly": "345.8545660667069",
        "mean_motion": ".2026342843794851",
        "equinox": "J2000",
        "orbit_class": {
            "orbit_class_type": "APO",
            "orbit_class_description": "Near-Earth asteroid orbits which cross the Earth’s orbit similar to that of 1862 Apollo",
            "orbit_class_range": "a (semi-major axis) > 1.0 AU; q (perihelion) < 1.017 AU"
        }
    },
    "is_sentry_object": false
}